H1 CPF  1  DLR 2022 03 07 10  5662 technosat            
H2  1704205 6203    42829 2022 03 07 00 00 00 2022 03 14 00 00 00    60 1 1  0 0 0
H9
10 0 59648  72000.000000  0       2031251.779        904983.363       6605225.678
10 0 59648  72060.000000  0       2464455.430        884157.172       6459860.613
10 0 59648  72120.000000  0       2887099.048        855874.389       6287180.726
10 0 59648  72180.000000  0       3297344.669        820354.359       6087917.369
10 0 59648  72240.000000  0       3693408.274        777862.560       5862913.453
10 0 59648  72300.000000  0       4073567.538        728709.028       5613120.035
10 0 59648  72360.000000  0       4436169.364        673246.488       5339592.479
10 0 59648  72420.000000  0       4779637.147        611868.226       5043486.215
10 0 59648  72480.000000  0       5102477.812        545005.744       4726052.064
10 0 59648  72540.000000  0       5403288.505        473126.227       4388631.088
10 0 59648  72600.000000  0       5680762.887        396729.800       4032649.021
10 0 59648  72660.000000  0       5933697.009        316346.577       3659610.340
10 0 59648  72720.000000  0       6160994.774        232533.559       3271091.940
10 0 59648  72780.000000  0       6361672.859        145871.351       2868736.457
10 0 59648  72840.000000  0       6534865.109         56960.658       2454245.371
10 0 59648  72900.000000  0       6679826.522        -33581.338       2029371.863
10 0 59648  72960.000000  0       6795936.706       -125124.646       1595913.305
10 0 59648  73020.000000  0       6882702.651       -217030.202       1155703.532
10 0 59648  73080.000000  0       6939760.934       -308653.692        710605.023
10 0 59648  73140.000000  0       6966879.408       -399349.441        262500.886
10 0 59648  73200.000000  0       6963958.196       -488474.314       -186713.361
10 0 59648  73260.000000  0       6931029.956       -575391.611       -635137.953
10 0 59648  73320.000000  0       6868259.634       -659474.933      -1080877.013
10 0 59648  73380.000000  0       6775943.582       -740111.978      -1522046.753
10 0 59648  73440.000000  0       6654507.998       -816708.267      -1956783.582
10 0 59648  73500.000000  0       6504506.777       -888690.779      -2383252.045
10 0 59648  73560.000000  0       6326618.797       -955511.465      -2799652.650
10 0 59648  73620.000000  0       6121644.613      -1016650.617      -3204229.493
10 0 59648  73680.000000  0       5890502.613      -1071620.077      -3595277.668
10 0 59648  73740.000000  0       5634224.637      -1119966.262      -3971150.411
10 0 59648  73800.000000  0       5353951.095      -1161272.971      -4330265.944
10 0 59648  73860.000000  0       5050925.661      -1195163.993      -4671113.982
10 0 59648  73920.000000  0       4726489.563      -1221305.509      -4992261.935
10 0 59648  73980.000000  0       4382075.436      -1239408.272      -5292360.769
10 0 59648  74040.000000  0       4019200.807      -1249229.553      -5570150.465
10 0 59648  74100.000000  0       3639461.230      -1250574.834      -5824465.061
10 0 59648  74160.000000  0       3244523.174      -1243299.217      -6054237.270
10 0 59648  74220.000000  0       2836116.663      -1227308.566      -6258502.699
10 0 59648  74280.000000  0       2416027.708      -1202560.347      -6436403.675
10 0 59648  74340.000000  0       1986090.499      -1169064.210      -6587192.629
10 0 59648  74400.000000  0       1548179.459      -1126882.349      -6710235.001
10 0 59648  74460.000000  0       1104201.189      -1076129.595      -6805011.721
10 0 59648  74520.000000  0        656086.305      -1016973.210      -6871121.326
10 0 59648  74580.000000  0        205781.121       -949632.357      -6908281.550
10 0 59648  74640.000000  0       -244760.585       -874377.342      -6916330.430
10 0 59648  74700.000000  0       -693585.847       -791528.603      -6895227.094
10 0 59648  74760.000000  0      -1138750.875       -701455.404      -6845052.082
10 0 59648  74820.000000  0      -1578329.367       -604574.227      -6766007.113
10 0 59648  74880.000000  0      -2010420.722       -501346.922      -6658414.425
10 0 59648  74940.000000  0      -2433158.151       -392278.632      -6522715.616
10 0 59648  75000.000000  0      -2844716.609       -277915.453      -6359470.090
10 0 59648  75060.000000  0      -3243320.618       -158841.839      -6169353.128
10 0 59648  75120.000000  0      -3627252.031        -35677.770      -5953153.514
10 0 59648  75180.000000  0      -3994857.633         90924.304      -5711770.562
10 0 59648  75240.000000  0      -4344556.384        220282.741      -5446210.653
10 0 59648  75300.000000  0      -4674846.381        351690.140      -5157583.412
10 0 59648  75360.000000  0      -4984311.607        484416.973      -4847097.470
10 0 59648  75420.000000  0      -5271628.402        617715.443      -4516055.735
10 0 59648  75480.000000  0      -5535571.536        750823.511      -4165850.141
10 0 59648  75540.000000  0      -5775019.809        882969.017      -3797955.981
10 0 59648  75600.000000  0      -5988961.259       1013373.932      -3413925.876
10 0 59648  75660.000000  0      -6176497.885       1141258.704      -3015383.283
10 0 59648  75720.000000  0      -6336849.847       1265846.633      -2604015.647
10 0 59648  75780.000000  0      -6469359.116       1386368.294      -2181567.230
10 0 59648  75840.000000  0      -6573492.602       1502065.983      -1749831.653
10 0 59648  75900.000000  0      -6648844.708       1612198.196      -1310644.095
10 0 59648  75960.000000  0      -6695139.217       1716044.023       -865873.195
10 0 59648  76020.000000  0      -6712230.498       1812907.406       -417412.798
10 0 59648  76080.000000  0      -6700104.068       1902121.306         32826.422
10 0 59648  76140.000000  0      -6658876.488       1983051.790        482925.405
10 0 59648  76200.000000  0      -6588794.654       2055101.966        930965.198
10 0 59648  76260.000000  0      -6490234.451       2117715.726       1375035.503
10 0 59648  76320.000000  0      -6363698.716       2170381.288       1813243.197
10 0 59648  76380.000000  0      -6209814.565       2212634.506       2243720.735
10 0 59648  76440.000000  0      -6029330.116       2244061.928       2664634.405
10 0 59648  76500.000000  0      -5823110.645       2264303.548       3074192.436
10 0 59648  76560.000000  0      -5592134.126       2273055.272       3470652.878
10 0 59648  76620.000000  0      -5337486.237       2270071.088       3852331.157
10 0 59648  76680.000000  0      -5060354.906       2255164.933       4217607.314
10 0 59648  76740.000000  0      -4762024.409       2228212.249       4564932.924
10 0 59648  76800.000000  0      -4443869.071       2189151.186       4892837.604
10 0 59648  76860.000000  0      -4107346.622       2137983.509       5199935.191
10 0 59648  76920.000000  0      -3753991.200       2074775.168       5484929.475
10 0 59648  76980.000000  0      -3385406.107       1999656.543       5746619.590
10 0 59648  77040.000000  0      -3003256.166       1912822.364       5983904.931
10 0 59648  77100.000000  0      -2609259.922       1814531.258       6195789.521
10 0 59648  77160.000000  0      -2205181.696       1705104.958       6381385.946
10 0 59648  77220.000000  0      -1792823.485       1584927.216       6539918.800
10 0 59648  77280.000000  0      -1374016.787       1454442.387       6670727.600
10 0 59648  77340.000000  0       -950614.421       1314153.733       6773269.208
10 0 59648  77400.000000  0       -524482.351       1164621.422       6847119.832
10 0 59648  77460.000000  0        -97491.481       1006460.236       6891976.577
10 0 59648  77520.000000  0        328490.518        840336.990       6907658.495
10 0 59648  77580.000000  0        751607.314        666967.713       6894107.157
10 0 59648  77640.000000  0       1170021.922        487114.553       6851386.754
10 0 59648  77700.000000  0       1581924.595        301582.439       6779683.732
10 0 59648  77760.000000  0       1985540.555        111215.506       6679305.966
10 0 59648  77820.000000  0       2379137.568        -83106.731       6550681.506
10 0 59648  77880.000000  0       2761033.354       -280473.411       6394356.823
10 0 59648  77940.000000  0       3129602.773       -479946.525       6210994.552
10 0 59648  78000.000000  0       3483284.735       -680565.289       6001370.794
10 0 59648  78060.000000  0       3820588.861       -881350.719       5766371.972
10 0 59648  78120.000000  0       4140101.787      -1081310.357       5506991.205
10 0 59648  78180.000000  0       4440493.134      -1279443.091       5224324.292
10 0 59648  78240.000000  0       4720521.165      -1474744.094       4919565.266
10 0 59648  78300.000000  0       4979038.061      -1666209.797       4594001.515
10 0 59648  78360.000000  0       5214994.825      -1852842.952       4249008.509
10 0 59648  78420.000000  0       5427445.729      -2033657.740       3886044.079
10 0 59648  78480.000000  0       5615552.286      -2207684.890       3506642.326
10 0 59648  78540.000000  0       5778586.703      -2373976.764       3112407.158
10 0 59648  78600.000000  0       5915934.827      -2531612.381       2705005.549
10 0 59648  78660.000000  0       6027098.588      -2679702.347       2286160.489
10 0 59648  78720.000000  0       6111697.903      -2817393.664       1857643.707
10 0 59648  78780.000000  0       6169472.133      -2943874.456       1421268.151
10 0 59648  78840.000000  0       6200280.903      -3058378.529        978880.109
10 0 59648  78900.000000  0       6204104.223      -3160189.668        532351.263
10 0 59648  78960.000000  0       6181042.164      -3248645.729         83570.720
10 0 59648  79020.000000  0       6131314.022      -3323142.524       -365563.157
10 0 59648  79080.000000  0       6055256.833      -3383137.427       -813151.027
10 0 59648  79140.000000  0       5953323.231      -3428152.623      -1257300.783
99
